{
  "type": "FeatureCollection",
  "features": [
    {
      "type": "Feature",
      "properties": {
        "norad_id": 49537,
        "name": "COSMOS 1408 DEB",
        "group": "cosmos-1408-debris",
        "lat": -70.6414797473127,
        "lon": -52.21999173297045,
        "alt_km": 147.75636419033526,
        "timestamp": "2025-12-02T13:52:17.532599+00:00",
        "meta_object_name": "COSMOS 1408 DEB",
        "meta_object_id": "1982-092AA",
        "meta_epoch": "2025-12-01T10:29:21.651360",
        "meta_mean_motion": 16.33498888,
        "meta_eccentricity": 0.00127731,
        "meta_inclination": 82.5092,
        "meta_ra_of_asc_node": 107.1368,
        "meta_arg_of_pericenter": 299.8571,
        "meta_mean_anomaly": 60.1455,
        "meta_ephemeris_type": 0,
        "meta_classification_type": "U",
        "meta_norad_cat_id": 49537,
        "meta_element_set_no": 999,
        "meta_rev_at_epoch": 22403,
        "meta_bstar": 0.00094222941,
        "meta_mean_motion_dot": 0.05878558,
        "meta_mean_motion_ddot": -1.252052e-06,
        "tle_line1": "1 49537U 82092AA  25335.43705615  .05878558 -12521-5  94223-3 0  9994",
        "tle_line2": "2 49537  82.5092 107.1368 0012773 299.8571  60.1455 16.33498888224033"
      },
      "geometry": {
        "type": "Point",
        "coordinates": [
          -52.21999173297045,
          -70.6414797473127
        ]
      }
    },
    {
      "type": "Feature",
      "properties": {
        "norad_id": 50032,
        "name": "COSMOS 1408 DEB",
        "group": "cosmos-1408-debris",
        "lat": 38.054179527283765,
        "lon": -116.94565994216713,
        "alt_km": 430.023749442812,
        "timestamp": "2025-12-02T13:52:17.532621+00:00",
        "meta_object_name": "COSMOS 1408 DEB",
        "meta_object_id": "1982-092RU",
        "meta_epoch": "2025-12-02T05:29:26.338848",
        "meta_mean_motion": 15.45525424,
        "meta_eccentricity": 0.00146432,
        "meta_inclination": 82.5651,
        "meta_ra_of_asc_node": 69.2795,
        "meta_arg_of_pericenter": 249.8318,
        "meta_mean_anomaly": 110.1356,
        "meta_ephemeris_type": 0,
        "meta_classification_type": "U",
        "meta_norad_cat_id": 50032,
        "meta_element_set_no": 999,
        "meta_rev_at_epoch": 22441,
        "meta_bstar": 0.00014269317,
        "meta_mean_motion_dot": 6.913e-05,
        "meta_mean_motion_ddot": 0,
        "tle_line1": "1 50032U 82092RU  25336.22877707  .00006913  00000+0  14269-3 0  9993",
        "tle_line2": "2 50032  82.5651  69.2795 0014643 249.8318 110.1356 15.45525424224417"
      },
      "geometry": {
        "type": "Point",
        "coordinates": [
          -116.94565994216713,
          38.054179527283765
        ]
      }
    },
    {
      "type": "Feature",
      "properties": {
        "norad_id": 50058,
        "name": "COSMOS 1408 DEB",
        "group": "cosmos-1408-debris",
        "lat": 44.054982067167536,
        "lon": 87.17862901853621,
        "alt_km": 374.9134043264439,
        "timestamp": "2025-12-02T13:52:17.532634+00:00",
        "meta_object_name": "COSMOS 1408 DEB",
        "meta_object_id": "1982-092SW",
        "meta_epoch": "2025-12-02T05:59:58.786944",
        "meta_mean_motion": 15.63156058,
        "meta_eccentricity": 0.00161817,
        "meta_inclination": 82.6146,
        "meta_ra_of_asc_node": 80.3116,
        "meta_arg_of_pericenter": 136.2342,
        "meta_mean_anomaly": 224.0203,
        "meta_ephemeris_type": 0,
        "meta_classification_type": "U",
        "meta_norad_cat_id": 50058,
        "meta_element_set_no": 999,
        "meta_rev_at_epoch": 22640,
        "meta_bstar": 0.00041340036,
        "meta_mean_motion_dot": 0.00038084,
        "meta_mean_motion_ddot": 0,
        "tle_line1": "1 50058U 82092SW  25336.24998596  .00038084  00000+0  41340-3 0  9997",
        "tle_line2": "2 50058  82.6146  80.3116 0016181 136.2342 224.0203 15.63156058226401"
      },
      "geometry": {
        "type": "Point",
        "coordinates": [
          87.17862901853621,
          44.054982067167536
        ]
      }
    },
    {
      "type": "Feature",
      "properties": {
        "norad_id": 50404,
        "name": "COSMOS 1408 DEB",
        "group": "cosmos-1408-debris",
        "lat": -33.79357638385887,
        "lon": 50.67922582538875,
        "alt_km": 422.40837567648305,
        "timestamp": "2025-12-02T13:52:17.532646+00:00",
        "meta_object_name": "COSMOS 1408 DEB",
        "meta_object_id": "1982-092ADS",
        "meta_epoch": "2025-12-02T03:23:04.900416",
        "meta_mean_motion": 15.11568017,
        "meta_eccentricity": 0.01770451,
        "meta_inclination": 82.207,
        "meta_ra_of_asc_node": 225.8658,
        "meta_arg_of_pericenter": 235.6536,
        "meta_mean_anomaly": 122.7837,
        "meta_ephemeris_type": 0,
        "meta_classification_type": "U",
        "meta_norad_cat_id": 50404,
        "meta_element_set_no": 999,
        "meta_rev_at_epoch": 21033,
        "meta_bstar": 0.0031085451,
        "meta_mean_motion_dot": 0.00077873,
        "meta_mean_motion_ddot": 0,
        "tle_line1": "1 50404U 82092ADS 25336.14102894  .00077873  00000+0  31085-2 0  9992",
        "tle_line2": "2 50404  82.2070 225.8658 0177045 235.6536 122.7837 15.11568017210338"
      },
      "geometry": {
        "type": "Point",
        "coordinates": [
          50.67922582538875,
          -33.79357638385887
        ]
      }
    },
    {
      "type": "Feature",
      "properties": {
        "norad_id": 50621,
        "name": "COSMOS 1408 DEB",
        "group": "cosmos-1408-debris",
        "lat": -28.704843415089503,
        "lon": 80.65364356539968,
        "alt_km": 420.9535611382571,
        "timestamp": "2025-12-02T13:52:17.532657+00:00",
        "meta_object_name": "COSMOS 1408 DEB",
        "meta_object_id": "1982-092ALR",
        "meta_epoch": "2025-12-01T08:40:02.733600",
        "meta_mean_motion": 15.55763582,
        "meta_eccentricity": 0.00289111,
        "meta_inclination": 82.5699,
        "meta_ra_of_asc_node": 86.0169,
        "meta_arg_of_pericenter": 194.2516,
        "meta_mean_anomaly": 165.7927,
        "meta_ephemeris_type": 0,
        "meta_classification_type": "U",
        "meta_norad_cat_id": 50621,
        "meta_element_set_no": 999,
        "meta_rev_at_epoch": 22073,
        "meta_bstar": 0.00047506619,
        "meta_mean_motion_dot": 0.00033485,
        "meta_mean_motion_ddot": 0,
        "tle_line1": "1 50621U 82092ALR 25335.36114275  .00033485  00000+0  47507-3 0  9990",
        "tle_line2": "2 50621  82.5699  86.0169 0028911 194.2516 165.7927 15.55763582220732"
      },
      "geometry": {
        "type": "Point",
        "coordinates": [
          80.65364356539968,
          -28.704843415089503
        ]
      }
    }
  ]
}